FENGYUN 3D              
1 43010U 17072A   26198.73335352 -.00000406  00000+0 -17016-3 0  9991
2 43010  99.0147 173.7108 0001424   9.5878 350.5324 14.19743350449326
NOAA 20 (JPSS-1)        
1 43013U 17073A   26198.66285300  .00000021  00000+0  31056-4 0  9996
2 43013  98.7772 137.8556 0001479 121.8101 238.3219 14.19516723448792
GOES 17                 
1 43226U 18022A   26198.39272483 -.00000193  00000+0  00000+0 0  9996
2 43226   1.0128  85.2242 0000597  72.6391 189.2281  1.00270880 30722
SENTINEL-3B             
1 43437U 18039A   26198.20528444  .00000049  00000+0  38460-4 0  9994
2 43437  98.6235 265.3046 0001193 119.8366 240.2933 14.26736729428408
FENGYUN 2H              
1 43491U 18050A   26198.63998369 -.00000137  00000+0  00000+0 0  9994
2 43491   3.1079  78.7138 0002281 133.4643  32.7622  1.00266974 29743
METOP-C                 
1 43689U 18087A   26198.68650593  .00000032  00000+0  34327-4 0  9999
2 43689  98.6628 257.7301 0002129  90.3043 269.8378 14.21503238399169
GEO-KOMPSAT-2A          
1 43823U 18100A   26198.50716203 -.00000353  00000+0  00000+0 0  9990
2 43823   0.0319 166.1558 0002281 290.0894 149.9033  1.00273401 27930
METEOR-M2 2             
1 44387U 19038A   26198.73142089  .00000046  00000+0  39623-4 0  9993
2 44387  98.9160 186.4704 0000556 358.2813   1.8363 14.24373185365640
ARKTIKA-M 1             
1 47719U 21016A   26195.40739072 -.00000301  00000+0  00000+0 0  9996
2 47719  63.2662  53.6722 7297332 270.0591  14.4994  2.00611590 39330
FENGYUN 3E              
1 49008U 21062A   26198.71385059 -.00000111  00000+0 -31482-4 0  9992
2 49008  98.7498 201.7825 0002134  34.5812 325.5503 14.19905782260913
GOES 18                 
1 51850U 22021A   26198.59726072  .00000087  00000+0  00000+0 0  9993
2 51850   0.0143 128.8784 0000439  42.9250 201.6141  1.00271942  6899
NOAA 21 (JPSS-2)        
1 54234U 22150A   26198.69511061  .00000009  00000+0  24869-4 0  9994
2 54234  98.7059 136.9720 0002860 100.2799 259.8699 14.19541284190872
METEOSAT-12 (MTG-I1)    
1 54743U 22170C   26198.62430083 -.00000018  00000+0  00000+0 0  9995
2 54743   0.7277  20.1427 0003910  81.3738  58.3177  1.00268411 13285
TIANMU-1 03             
1 55973U 23039A   26198.63145023  .00008373  00000+0  16160-3 0  9993
2 55973  97.5244  13.8133 0002372  19.2031 340.9308 15.48085659185542
TIANMU-1 04             
1 55974U 23039B   26198.73811318  .00008898  00000+0  16788-3 0  9990
2 55974  97.5186  13.0804 0002771   2.9678 357.1588 15.48716367185574
TIANMU-1 05             
1 55975U 23039C   26198.67834979  .00008440  00000+0  16329-3 0  9996
2 55975  97.5230  13.4655 0002740  39.4389 320.7060 15.48011996185536
TIANMU-1 06             
1 55976U 23039D   26198.67885075  .00008675  00000+0  16433-3 0  9996
2 55976  97.5238  14.1328 0002811  29.8983 330.2427 15.48611445185563
FENGYUN 3G              
1 56232U 23055A   26198.53495308  .00013140  00000+0  20691-3 0  9995
2 56232  49.9910 189.4963 0006968  67.0583 293.1119 15.53855978184724
METEOR-M2 3             
1 57166U 23091A   26198.73280277 -.00000023  00000+0  89114-5 0  9995
2 57166  98.6067 253.0834 0005138  84.5860 275.5905 14.24049034158868
TIANMU-1 07             
1 57399U 23101A   26198.70855611  .00003120  00000+0  10954-3 0  9996
2 57399  97.2573 248.6797 0003583  59.3814 300.7780 15.30131857166316
TIANMU-1 08             
1 57400U 23101B   26198.67511691  .00003069  00000+0  10778-3 0  9998
2 57400  97.2562 248.4131 0004373  39.9067 320.2495 15.30135201166305
TIANMU-1 09             
1 57401U 23101C   26198.72320672  .00003306  00000+0  11575-3 0  9992
2 57401  97.2520 247.8605 0004193  59.0628 301.1025 15.30177302166311
TIANMU-1 10             
1 57402U 23101D   26198.69139597  .00003183  00000+0  11164-3 0  9990
2 57402  97.2600 248.9110 0005438  47.4029 312.7670 15.30150629166309
FENGYUN 3F              
1 57490U 23111A   26198.69703037  .00000001  00000+0  20895-4 0  9992
2 57490  98.6824 268.1353 0001225  75.7822 284.3490 14.19943664153199
ARKTIKA-M 2             
1 58584U 23198A   26196.17500106  .00000129  00000+0  00000+0 0  9997
2 58584  63.2178 151.2342 6910736 267.3397  18.7345  2.00608092 18886
TIANMU-1 11             
1 58645U 23205A   26198.71861431  .00002691  00000+0  10342-3 0  9997
2 58645  97.3441 219.8013 0006884 250.6485 109.4011 15.27277802142181
TIANMU-1 12             
1 58646U 23205B   26198.69129257  .00002747  00000+0  10604-3 0  9991
2 58646  97.3430 219.5204 0006019 223.5445 136.5320 15.27109767142160
TIANMU-1 13             
1 58647U 23205C   26198.72474625  .00002740  00000+0  10579-3 0  9992
2 58647  97.3458 219.8342 0006079 202.0997 157.9981 15.27102609142165
TIANMU-1 14             
1 58648U 23205D   26198.70906725  .00002782  00000+0  10721-3 0  9997
2 58648  97.3394 218.9766 0006676 209.7697 150.3163 15.27146539142168
TIANMU-1 19             
1 58660U 23208A   26198.72831807  .00004364  00000+0  14381-3 0  9998
2 58660  97.4530 315.1973 0004851 188.9435 171.1721 15.31998530142001
TIANMU-1 20             
1 58661U 23208B   26198.74242986  .00004400  00000+0  13968-3 0  9996
2 58661  97.4473 315.8786 0006575 202.3394 157.7563 15.33187817142102
