OBJECT_NAME,OBJECT_ID,EPOCH,MEAN_MOTION,ECCENTRICITY,INCLINATION,RA_OF_ASC_NODE,ARG_OF_PERICENTER,MEAN_ANOMALY,EPHEMERIS_TYPE,CLASSIFICATION_TYPE,NORAD_CAT_ID,ELEMENT_SET_NO,REV_AT_EPOCH,BSTAR,MEAN_MOTION_DOT,MEAN_MOTION_DDOT
FENGYUN 3D,2017-072A,2026-07-17T17:36:01.744128,14.19743350,.0001424,99.0147,173.7108,9.5878,350.5324,0,U,43010,999,44932,-.17016E-3,-.406E-5,0
NOAA 20 (JPSS-1),2017-073A,2026-07-17T15:54:30.499200,14.19516723,.0001479,98.7772,137.8556,121.8101,238.3219,0,U,43013,999,44879,.31056E-4,.21E-6,0
GOES 17,2018-022A,2026-07-17T09:25:31.425312,1.00270880,.0000597,1.0128,85.2242,72.6391,189.2281,0,U,43226,999,3072,0,-.193E-5,0
SENTINEL-3B,2018-039A,2026-07-17T04:55:36.575616,14.26736729,.0001193,98.6235,265.3046,119.8366,240.2933,0,U,43437,999,42840,.3846E-4,.49E-6,0
FENGYUN 2H,2018-050A,2026-07-17T15:21:34.590816,1.00266974,.0002281,3.1079,78.7138,133.4643,32.7622,0,U,43491,999,2974,0,-.137E-5,0
METOP-C,2018-087A,2026-07-17T16:28:34.112352,14.21503238,.0002129,98.6628,257.7301,90.3043,269.8378,0,U,43689,999,39916,.34327E-4,.32E-6,0
GEO-KOMPSAT-2A,2018-100A,2026-07-17T12:10:18.799392,1.00273401,.0002281,0.0319,166.1558,290.0894,149.9033,0,U,43823,999,2793,0,-.353E-5,0
METEOR-M2 2,2019-038A,2026-07-17T17:33:14.764896,14.24373185,.0000556,98.9160,186.4704,358.2813,1.8363,0,U,44387,999,36564,.39623E-4,.46E-6,0
ARKTIKA-M 1,2021-016A,2026-07-14T09:46:38.558208,2.00611590,.7297332,63.2662,53.6722,270.0591,14.4994,0,U,47719,999,3933,0,-.301E-5,0
FENGYUN 3E,2021-062A,2026-07-17T17:07:56.690976,14.19905782,.0002134,98.7498,201.7825,34.5812,325.5503,0,U,49008,999,26091,-.31482E-4,-.111E-5,0
GOES 18,2022-021A,2026-07-17T14:20:03.326208,1.00271942,.0000439,0.0143,128.8784,42.9250,201.6141,0,U,51850,999,689,0,.87E-6,0
NOAA 21 (JPSS-2),2022-150A,2026-07-17T16:40:57.556704,14.19541284,.000286,98.7059,136.9720,100.2799,259.8699,0,U,54234,999,19087,.24869E-4,.9E-7,0
METEOSAT-12 (MTG-I1),2022-170C,2026-07-17T14:58:59.591712,1.00268411,.000391,0.7277,20.1427,81.3738,58.3177,0,U,54743,999,1328,0,-.18E-6,0
TIANMU-1 03,2023-039A,2026-07-17T15:09:17.299872,15.48085659,.0002372,97.5244,13.8133,19.2031,340.9308,0,U,55973,999,18554,.1616E-3,.8373E-4,0
TIANMU-1 04,2023-039B,2026-07-17T17:42:52.978752,15.48716367,.0002771,97.5186,13.0804,2.9678,357.1588,0,U,55974,999,18557,.16788E-3,.8898E-4,0
TIANMU-1 05,2023-039C,2026-07-17T16:16:49.421856,15.48011996,.000274,97.5230,13.4655,39.4389,320.7060,0,U,55975,999,18553,.16329E-3,.844E-4,0
TIANMU-1 06,2023-039D,2026-07-17T16:17:32.704800,15.48611445,.0002811,97.5238,14.1328,29.8983,330.2427,0,U,55976,999,18556,.16433E-3,.8675E-4,0
FENGYUN 3G,2023-055A,2026-07-17T12:50:19.946112,15.53855978,.0006968,49.9910,189.4963,67.0583,293.1119,0,U,56232,999,18472,.20691E-3,.1314E-3,0
METEOR-M2 3,2023-091A,2026-07-17T17:35:14.159328,14.24049034,.0005138,98.6067,253.0834,84.5860,275.5905,0,U,57166,999,15886,.89114E-5,-.23E-6,0
TIANMU-1 07,2023-101A,2026-07-17T17:00:19.247904,15.30131857,.0003583,97.2573,248.6797,59.3814,300.7780,0,U,57399,999,16631,.10954E-3,.312E-4,0
TIANMU-1 08,2023-101B,2026-07-17T16:12:10.101024,15.30135201,.0004373,97.2562,248.4131,39.9067,320.2495,0,U,57400,999,16630,.10778E-3,.3069E-4,0
TIANMU-1 09,2023-101C,2026-07-17T17:21:25.060608,15.30177302,.0004193,97.2520,247.8605,59.0628,301.1025,0,U,57401,999,16631,.11575E-3,.3306E-4,0
TIANMU-1 10,2023-101D,2026-07-17T16:35:36.611808,15.30150629,.0005438,97.2600,248.9110,47.4029,312.7670,0,U,57402,999,16630,.11164E-3,.3183E-4,0
FENGYUN 3F,2023-111A,2026-07-17T16:43:43.423968,14.19943664,.0001225,98.6824,268.1353,75.7822,284.3490,0,U,57490,999,15319,.20895E-4,.1E-7,0
ARKTIKA-M 2,2023-198A,2026-07-15T04:12:00.091584,2.00608092,.69107365,63.2178,151.2342,267.3397,18.7345,0,U,58584,999,1888,0,.129E-5,0
TIANMU-1 11,2023-205A,2026-07-17T17:14:48.276384,15.27277802,.0006884,97.3441,219.8013,250.6485,109.4011,0,U,58645,999,14218,.10342E-3,.2691E-4,0
TIANMU-1 12,2023-205B,2026-07-17T16:35:27.678048,15.27109767,.0006019,97.3430,219.5204,223.5445,136.5320,0,U,58646,999,14216,.10604E-3,.2747E-4,0
TIANMU-1 13,2023-205C,2026-07-17T17:23:38.076000,15.27102609,.0006079,97.3458,219.8342,202.0997,157.9981,0,U,58647,999,14216,.10579E-3,.274E-4,0
TIANMU-1 14,2023-205D,2026-07-17T17:01:03.410400,15.27146539,.0006676,97.3394,218.9766,209.7697,150.3163,0,U,58648,999,14216,.10721E-3,.2782E-4,0
TIANMU-1 19,2023-208A,2026-07-17T17:28:46.681248,15.31998530,.0004851,97.4530,315.1973,188.9435,171.1721,0,U,58660,999,14200,.14381E-3,.4364E-4,0
TIANMU-1 20,2023-208B,2026-07-17T17:49:05.939904,15.33187817,.0006575,97.4473,315.8786,202.3394,157.7563,0,U,58661,999,14210,.13968E-3,.44E-4,0
